ONEWEB-0385             
1 49311U 21090AJ  24014.75301656  .00000006  00000+0 -18263-4 0  9994
2 49311  87.9185  90.4989 0001410 107.1079 253.0209 13.20772483113056
ONEWEB-0386             
1 49312U 21090AK  24014.77037689  .00000107  00000+0  23043-3 0  9991
2 49312  87.9179  90.5009 0001536 110.0685 250.0614 13.20770129113073
ONEWEB-0387             
1 49313U 21090AL  24014.75460871  .00000056  00000+0  10615-3 0  9997
2 49313  87.9184  90.5559 0001445  93.3121 266.8177 13.20775665113076
ONEWEB-0388             
1 49314U 21090AM  24014.85330067 -.00000137  00000+0 -37553-3 0  9994
2 49314  87.9209 121.0095 0001602 111.9924 248.1379 13.19725270109777
ONEWEB-0389             
1 50469U 21132A   24014.92213007  .00000009  00000+0 -91207-5 0  9991
2 50469  87.9214 181.6934 0001179  78.1830 281.9434 13.17648695101636
ONEWEB-0390             
1 50470U 21132B   24014.92370666  .00000033  00000+0  51147-4 0  9992
2 50470  87.9214 181.7018 0001653  77.9927 282.1390 13.17648614101638
ONEWEB-0391             
1 50471U 21132C   24014.92528904 -.00000007  00000+0 -51837-4 0  9992
2 50471  87.9225 181.6718 0001006  82.4527 277.6719 13.17648621101638
ONEWEB-0392             
1 50472U 21132D   24014.87940072 -.00000245  00000+0 -66436-3 0  9995
2 50472  87.9204 181.7040 0001272  82.5120 277.6156 13.17648626101663
